start=new Date('2022-03-17T00:00:00.000Z').valueOf();
sats=[{"OBJECT_NAME":"STARLINK-2442","OBJECT_TYPE":"PAYLOAD","TLE_LINE2":"2 48106  53.0550 199.2830 0001289  82.3741 277.7394 15.06377970 53536","COUNTRY_CODE":"US","MEAN_MOTION":"15.06377970","REF_FRAME":"TEME","CLASSIFICATION_TYPE":"U","TLE_LINE1":"1 48106U 21027Q   22075.59865708 -.00000860  00000-0 -38905-4 0  9990","MEAN_ELEMENT_THEORY":"SGP4","MEAN_MOTION_DDOT":"0.0000000000000","EPOCH":"2022-03-16T14:22:03.971712","PERIAPSIS":"546.388","MEAN_MOTION_DOT":"-0.00000860","ARG_OF_PERICENTER":"82.3741","ECCENTRICITY":"0.00012890","TIME_SYSTEM":"UTC","SEMIMAJOR_AXIS":"6925.416","OBJECT_ID":"2021-027Q","EPHEMERIS_TYPE":"0","ELEMENT_SET_NO":"999","APOAPSIS":"548.174","BSTAR":"-0.00003890500000","FILE":"3361689","GP_ID":"198887962","CENTER_NAME":"EARTH","REV_AT_EPOCH":"5353","RCS_SIZE":"LARGE","RA_OF_ASC_NODE":"199.2830","SITE":"AFETR","INCLINATION":"53.0550","NORAD_CAT_ID":"48106","PERIOD":"95.594","LAUNCH_DATE":"2021-04-07","MEAN_ANOMALY":"277.7394","DECAY_DATE":null},{"TLE_LINE2":"2 48107  53.0537 199.2093 0001654  81.5706 278.5470 15.06355582 53530","COUNTRY_CODE":"US","OBJECT_NAME":"STARLINK-2443","OBJECT_TYPE":"PAYLOAD","EPOCH":"2022-03-16T14:44:39.207552","PERIAPSIS":"546.204","MEAN_ELEMENT_THEORY":"SGP4","MEAN_MOTION_DDOT":"0.0000000000000","REF_FRAME":"TEME","CLASSIFICATION_TYPE":"U","TLE_LINE1":"1 48107U 21027R   22075.61434268 -.00008504  00000-0 -55336-3 0  9996","MEAN_MOTION":"15.06355582","SEMIMAJOR_AXIS":"6925.485","MEAN_MOTION_DOT":"-0.00008504","ECCENTRICITY":"0.00016540","ARG_OF_PERICENTER":"81.5706","TIME_SYSTEM":"UTC","OBJECT_ID":"2021-027R","FILE":"3361689","BSTAR":"-0.00055336000000","GP_ID":"198888212","APOAPSIS":"548.495","ELEMENT_SET_NO":"999","EPHEMERIS_TYPE":"0","CENTER_NAME":"EARTH","RCS_SIZE":"LARGE","REV_AT_EPOCH":"5353","DECAY_DATE":null,"PERIOD":"95.595","LAUNCH_DATE":"2021-04-07","MEAN_ANOMALY":"278.5470","INCLINATION":"53.0537","NORAD_CAT_ID":"48107","RA_OF_ASC_NODE":"199.2093","SITE":"AFETR"},{"MEAN_MOTION_DOT":"-0.00001810","ARG_OF_PERICENTER":"75.6896","ECCENTRICITY":"0.00015050","TIME_SYSTEM":"UTC","SEMIMAJOR_AXIS":"6925.371","OBJECT_ID":"2021-027S","OBJECT_TYPE":"PAYLOAD","OBJECT_NAME":"STARLINK-2444","TLE_LINE2":"2 48108  53.0552 208.7472 0001505  75.6896 284.4260 15.06392705 53401","COUNTRY_CODE":"US","MEAN_MOTION":"15.06392705","REF_FRAME":"TEME","TLE_LINE1":"1 48108U 21027S   22075.72031681 -.00001810  00000-0 -10269-3 0  9990","CLASSIFICATION_TYPE":"U","MEAN_MOTION_DDOT":"0.0000000000000","MEAN_ELEMENT_THEORY":"SGP4","EPOCH":"2022-03-16T17:17:15.372384","PERIAPSIS":"546.194","REV_AT_EPOCH":"5340","RCS_SIZE":"LARGE","RA_OF_ASC_NODE":"208.7472","SITE":"AFETR","INCLINATION":"53.0552","NORAD_CAT_ID":"48108","LAUNCH_DATE":"2021-04-07","PERIOD":"95.593","MEAN_ANOMALY":"284.4260","DECAY_DATE":null,"EPHEMERIS_TYPE":"0","ELEMENT_SET_NO":"999","APOAPSIS":"548.278","BSTAR":"-0.00010269000000","FILE":"3362094","GP_ID":"198920868","CENTER_NAME":"EARTH"},{"RCS_SIZE":"LARGE","REV_AT_EPOCH":"5327","DECAY_DATE":null,"MEAN_ANOMALY":"286.2287","PERIOD":"95.593","LAUNCH_DATE":"2021-04-07","NORAD_CAT_ID":"48109","INCLINATION":"53.0555","SITE":"AFETR","RA_OF_ASC_NODE":"218.6796","GP_ID":"198921608","FILE":"3362094","BSTAR":"-0.00001709800000","APOAPSIS":"548.185","ELEMENT_SET_NO":"999","EPHEMERIS_TYPE":"0","CENTER_NAME":"EARTH","SEMIMAJOR_AXIS":"6925.384","ARG_OF_PERICENTER":"73.8851","ECCENTRICITY":"0.00013520","TIME_SYSTEM":"UTC","MEAN_MOTION_DOT":"-0.00000536","OBJECT_ID":"2021-027T","COUNTRY_CODE":"US","TLE_LINE2":"2 48109  53.0555 218.6796 0001352  73.8851 286.2287 15.06388418 53275","OBJECT_NAME":"STARLINK-2445","OBJECT_TYPE":"PAYLOAD","PERIAPSIS":"546.313","EPOCH":"2022-03-16T17:37:09.075648","MEAN_ELEMENT_THEORY":"SGP4","MEAN_MOTION_DDOT":"0.0000000000000","TLE_LINE1":"1 48109U 21027T   22075.73413282 -.00000536  00000-0 -17098-4 0  9995","CLASSIFICATION_TYPE":"U","REF_FRAME":"TEME","MEAN_MOTION":"15.06388418"},{"APOAPSIS":"548.208","GP_ID":"198921856","BSTAR":"-0.00028497000000","FILE":"3362094","EPHEMERIS_TYPE":"0","ELEMENT_SET_NO":"999","CENTER_NAME":"EARTH","RCS_SIZE":"LARGE","REV_AT_EPOCH":"5340","MEAN_ANOMALY":"276.6206","PERIOD":"95.594","LAUNCH_DATE":"2021-04-07","DECAY_DATE":null,"SITE":"AFETR","RA_OF_ASC_NODE":"209.0906","NORAD_CAT_ID":"48110","INCLINATION":"53.0547","OBJECT_NAME":"STARLINK-2447","OBJECT_TYPE":"PAYLOAD","COUNTRY_CODE":"US","TLE_LINE2":"2 48110  53.0547 209.0906 0001294  83.4930 276.6206 15.06368060 53405","MEAN_MOTION_DDOT":"0.0000000000000","MEAN_ELEMENT_THEORY":"SGP4","PERIAPSIS":"546.415","EPOCH":"2022-03-16T15:25:46.775136","MEAN_MOTION":"15.06368060","CLASSIFICATION_TYPE":"U","TLE_LINE1":"1 48110U 21027U   22075.64290249 -.00004520  00000-0 -28497-3 0  9994","REF_FRAME":"TEME","SEMIMAJOR_AXIS":"6925.446","ECCENTRICITY":"0.00012940","ARG_OF_PERICENTER":"83.4930","TIME_SYSTEM":"UTC","MEAN_MOTION_DOT":"-0.00004520","OBJECT_ID":"2021-027U"},{"OBJECT_ID":"2021-027V","MEAN_MOTION_DOT":"-0.00006946","ARG_OF_PERICENTER":"87.2430","TIME_SYSTEM":"UTC","ECCENTRICITY":"0.00013570","SEMIMAJOR_AXIS":"6925.450","MEAN_MOTION":"15.06367027","REF_FRAME":"TEME","TLE_LINE1":"1 48111U 21027V   22075.63827713 -.00006946  00000-0 -44825-3 0  9993","CLASSIFICATION_TYPE":"U","MEAN_ELEMENT_THEORY":"SGP4","MEAN_MOTION_DDOT":"0.0000000000000","EPOCH":"2022-03-16T15:19:07.144032","PERIAPSIS":"546.375","OBJECT_TYPE":"PAYLOAD","OBJECT_NAME":"STARLINK-2448","TLE_LINE2":"2 48111  53.0537 209.1117 0001357  87.2430 272.8714 15.06367027 53401","COUNTRY_CODE":"US","RA_OF_ASC_NODE":"209.1117","SITE":"AFETR","INCLINATION":"53.0537","NORAD_CAT_ID":"48111","PERIOD":"95.594","LAUNCH_DATE":"2021-04-07","MEAN_ANOMALY":"272.8714","DECAY_DATE":null,"REV_AT_EPOCH":"5340","RCS_SIZE":"LARGE","CENTER_NAME":"EARTH","EPHEMERIS_TYPE":"0","ELEMENT_SET_NO":"999","APOAPSIS":"548.254","FILE":"3362094","BSTAR":"-0.00044825000000","GP_ID":"198922517"},{"RCS_SIZE":"LARGE","REV_AT_EPOCH":"5319","DECAY_DATE":null,"MEAN_ANOMALY":"277.1796","PERIOD":"95.594","LAUNCH_DATE":"2021-04-07","NORAD_CAT_ID":"48112","INCLINATION":"53.0526","SITE":"AFETR","RA_OF_ASC_NODE":"223.9228","GP_ID":"198921368","BSTAR":"-0.00020758000000","FILE":"3362094","APOAPSIS":"548.226","ELEMENT_SET_NO":"999","EPHEMERIS_TYPE":"0","CENTER_NAME":"EARTH","SEMIMAJOR_AXIS":"6925.429","ARG_OF_PERICENTER":"82.9346","TIME_SYSTEM":"UTC","ECCENTRICITY":"0.00013460","MEAN_MOTION_DOT":"-0.00003370","OBJECT_ID":"2021-027W","COUNTRY_CODE":"US","TLE_LINE2":"2 48112  53.0526 223.9228 0001346  82.9346 277.1796 15.06373690 53190","OBJECT_NAME":"STARLINK-2449","OBJECT_TYPE":"PAYLOAD","PERIAPSIS":"546.362","EPOCH":"2022-03-16T16:18:10.727712","MEAN_MOTION_DDOT":"0.0000000000000","MEAN_ELEMENT_THEORY":"SGP4","TLE_LINE1":"1 48112U 21027W   22075.67929083 -.00003370  00000-0 -20758-3 0  9998","CLASSIFICATION_TYPE":"U","REF_FRAME":"TEME","MEAN_MOTION":"15.06373690"},{"CENTER_NAME":"EARTH","EPHEMERIS_TYPE":"0","ELEMENT_SET_NO":"999","GP_ID":"198922108","FILE":"3362094","BSTAR":"-0.00017212000000","APOAPSIS":"548.197","NORAD_CAT_ID":"48113","INCLINATION":"53.0535","SITE":"AFETR","RA_OF_ASC_NODE":"218.8503","DECAY_DATE":null,"MEAN_ANOMALY":"282.2175","PERIOD":"95.594","LAUNCH_DATE":"2021-04-07","REV_AT_EPOCH":"5325","RCS_SIZE":"LARGE","TLE_LINE1":"1 48113U 21027X   22075.69728593 -.00002842  00000-0 -17212-3 0  9998","CLASSIFICATION_TYPE":"U","REF_FRAME":"TEME","MEAN_MOTION":"15.06375459","PERIAPSIS":"546.380","EPOCH":"2022-03-16T16:44:05.504352","MEAN_MOTION_DDOT":"0.0000000000000","MEAN_ELEMENT_THEORY":"SGP4","COUNTRY_CODE":"US","TLE_LINE2":"2 48113  53.0535 218.8503 0001312  77.8961 282.2175 15.06375459 53259","OBJECT_NAME":"STARLINK-2450","OBJECT_TYPE":"PAYLOAD","OBJECT_ID":"2021-027X","ARG_OF_PERICENTER":"77.8961","TIME_SYSTEM":"UTC","ECCENTRICITY":"0.00013120","MEAN_MOTION_DOT":"-0.00002842","SEMIMAJOR_AXIS":"6925.424"},{"EPOCH":"2022-03-16T15:47:38.118048","PERIAPSIS":"546.333","MEAN_MOTION_DDOT":"0.0000000000000","MEAN_ELEMENT_THEORY":"SGP4","REF_FRAME":"TEME","CLASSIFICATION_TYPE":"U","TLE_LINE1":"1 48114U 21027Y   22075.65808007 -.00000836  00000-0 -37257-4 0  9997","MEAN_MOTION":"15.06387571","TLE_LINE2":"2 48114  53.0534 214.0330 0001326  79.0230 281.0908 15.06387571 53331","COUNTRY_CODE":"US","OBJECT_TYPE":"PAYLOAD","OBJECT_NAME":"STARLINK-2451","OBJECT_ID":"2021-027Y","SEMIMAJOR_AXIS":"6925.387","MEAN_MOTION_DOT":"-0.00000836","ARG_OF_PERICENTER":"79.0230","TIME_SYSTEM":"UTC","ECCENTRICITY":"0.00013260","CENTER_NAME":"EARTH","BSTAR":"-0.00003725700000","FILE":"3362094","GP_ID":"198922356","APOAPSIS":"548.170","ELEMENT_SET_NO":"999","EPHEMERIS_TYPE":"0","DECAY_DATE":null,"PERIOD":"95.593","LAUNCH_DATE":"2021-04-07","MEAN_ANOMALY":"281.0908","INCLINATION":"53.0534","NORAD_CAT_ID":"48114","RA_OF_ASC_NODE":"214.0330","SITE":"AFETR","RCS_SIZE":"LARGE","REV_AT_EPOCH":"5333"},{"SEMIMAJOR_AXIS":"6925.398","ECCENTRICITY":"0.00011970","ARG_OF_PERICENTER":"90.4486","TIME_SYSTEM":"UTC","MEAN_MOTION_DOT":"0.00002499","OBJECT_ID":"2021-027Z","OBJECT_NAME":"STARLINK-2452","OBJECT_TYPE":"PAYLOAD","COUNTRY_CODE":"US","TLE_LINE2":"2 48115  53.0551 208.8983 0001197  90.4486 269.6640 15.06383962 53405","MEAN_ELEMENT_THEORY":"SGP4","MEAN_MOTION_DDOT":"0.0000000000000","PERIAPSIS":"546.434","EPOCH":"2022-03-16T16:28:07.542624","MEAN_MOTION":"15.06383962","CLASSIFICATION_TYPE":"U","TLE_LINE1":"1 48115U 21027Z   22075.68619841  .00002499  00000-0  18664-3 0  9992","REF_FRAME":"TEME","RCS_SIZE":"LARGE","REV_AT_EPOCH":"5340","MEAN_ANOMALY":"269.6640","LAUNCH_DATE":"2021-04-07","PERIOD":"95.593","DECAY_DATE":null,"SITE":"AFETR","RA_OF_ASC_NODE":"208.8983","NORAD_CAT_ID":"48115","INCLINATION":"53.0551","APOAPSIS":"548.092","GP_ID":"198922018","FILE":"3362094","BSTAR":"0.00018664000000","EPHEMERIS_TYPE":"0","ELEMENT_SET_NO":"999","CENTER_NAME":"EARTH"}];
